FENGYUN 1C DEB          
1 32432U 99025DAU 26055.36306472  .00010063  00000+0  19771-2 0  9994
2 32432  98.1653  94.7035 0171371  79.0407 283.0016 14.53852972717644
FENGYUN 1C DEB          
1 32440U 99025DBC 26035.85198885  .00003840  00000+0  35493-2 0  9996
2 32440  99.1556 252.8273 0326017 311.7197  45.6477 13.61708078610222
FENGYUN 1C DEB          
1 32447U 99025DBK 26061.26968159  .00000458  00000+0  35571-3 0  9996
2 32447  98.9260  79.9864 0079625 181.1807 178.9179 13.96065435689887
FENGYUN 1C DEB          
1 32451U 99025DBP 26060.20348903  .00004817  00000+0  36130-2 0  9997
2 32451  99.9798  50.1780 0186403 349.3156  10.4063 13.87160825628520
FENGYUN 1C DEB          
1 32453U 99025DBR 26060.20889597  .00001385  00000+0  89233-3 0  9998
2 32453  99.3711 337.1314 0098748 351.4274   8.5200 14.02479418945286
FENGYUN 1C DEB          
1 32455U 99025DBT 26061.30677654  .00004236  00000+0  26161-2 0  9999
2 32455 101.7335 279.5316 0238250 308.4506  49.5477 13.93075137655236
FENGYUN 1C DEB          
1 32456U 99025DBU 26059.18345304  .00000847  00000+0  12038-2 0  9999
2 32456 103.6729 230.5800 0373843  67.5823 296.4442 13.35831848616500
FENGYUN 1C DEB          
1 32458U 99025DBW 26055.25814818  .00006903  00000+0  13229-2 0  9998
2 32458  99.0398  87.1316 0040612 147.4694 212.9020 14.63609553688646
FENGYUN 1C DEB          
1 32459U 99025DBX 26060.00464822  .00003062  00000+0  70610-3 0  9995
2 32459  98.3001  77.2750 0210942 309.7921  48.4862 14.43286884956799
FENGYUN 1C DEB          
1 32460U 99025DBY 26061.34006944  .00002117  00000+0  15260-2 0  9991
2 32460  98.0230 200.6278 0185063 260.8485  97.1700 13.89855702663591
FENGYUN 1C DEB          
1 32461U 99025DBZ 26060.54675809  .00001423  00000+0  13032-2 0  9999
2 32461  98.3320 270.6309 0231899 264.9098 121.7244 13.73078019683760
FENGYUN 1C DEB          
1 32464U 99025DCC 26059.02240722  .00018615  00000+0  14913-2 0  9995
2 32464  97.3498  83.4554 0106797 337.6961  21.9633 14.95738340619469
FENGYUN 1C DEB          
1 33502U 99025DCF 26061.82408854  .00007204  00000+0  31096-2 0  9995
2 33502  99.0293  11.5080 0078671 286.1706 105.7568 14.23107787880942
FENGYUN 1C DEB          
1 33601U 99025DCJ 26061.34942803  .00002627  00000+0  13959-2 0  9991
2 33601  98.3212 216.3699 0156427 274.6740  83.6581 14.08244120918006
FENGYUN 1C DEB          
1 33603U 99025DCL 26061.58969429  .00001824  00000+0  16587-3 0  9991
2 33603  98.8140  10.0656 0217778 179.2213 180.9379 14.80458413   388
FENGYUN 1C DEB          
1 33605U 99025DCN 26061.23507968  .00000880  00000+0  53520-3 0  9990
2 33605  98.7042  62.3713 0055621 209.5321 164.8014 14.07950700609374
