[{"OBJECT_NAME":"FENGYUN 1C DEB","OBJECT_ID":"1999-025DAU","EPOCH":"2026-02-24T08:42:48.791808","MEAN_MOTION":14.53852972,"ECCENTRICITY":0.01713716,"INCLINATION":98.1653,"RA_OF_ASC_NODE":94.7035,"ARG_OF_PERICENTER":79.0407,"MEAN_ANOMALY":283.0016,"EPHEMERIS_TYPE":0,"CLASSIFICATION_TYPE":"U","NORAD_CAT_ID":32432,"ELEMENT_SET_NO":999,"REV_AT_EPOCH":71764,"BSTAR":0.0019771446,"MEAN_MOTION_DOT":0.00010063,"MEAN_MOTION_DDOT":0},{"OBJECT_NAME":"FENGYUN 1C DEB","OBJECT_ID":"1999-025DBC","EPOCH":"2026-02-04T20:26:51.836640","MEAN_MOTION":13.61708078,"ECCENTRICITY":0.03260174,"INCLINATION":99.1556,"RA_OF_ASC_NODE":252.8273,"ARG_OF_PERICENTER":311.7197,"MEAN_ANOMALY":45.6477,"EPHEMERIS_TYPE":0,"CLASSIFICATION_TYPE":"U","NORAD_CAT_ID":32440,"ELEMENT_SET_NO":999,"REV_AT_EPOCH":61022,"BSTAR":0.0035492661,"MEAN_MOTION_DOT":3.84e-5,"MEAN_MOTION_DDOT":0},{"OBJECT_NAME":"FENGYUN 1C DEB","OBJECT_ID":"1999-025DBK","EPOCH":"2026-03-02T06:28:20.489376","MEAN_MOTION":13.96065435,"ECCENTRICITY":0.00796252,"INCLINATION":98.926,"RA_OF_ASC_NODE":79.9864,"ARG_OF_PERICENTER":181.1807,"MEAN_ANOMALY":178.9179,"EPHEMERIS_TYPE":0,"CLASSIFICATION_TYPE":"U","NORAD_CAT_ID":32447,"ELEMENT_SET_NO":999,"REV_AT_EPOCH":68988,"BSTAR":0.00035571352,"MEAN_MOTION_DOT":4.58e-6,"MEAN_MOTION_DDOT":0},{"OBJECT_NAME":"FENGYUN 1C DEB","OBJECT_ID":"1999-025DBP","EPOCH":"2026-03-01T04:53:01.452192","MEAN_MOTION":13.87160825,"ECCENTRICITY":0.0186403,"INCLINATION":99.9798,"RA_OF_ASC_NODE":50.178,"ARG_OF_PERICENTER":349.3156,"MEAN_ANOMALY":10.4063,"EPHEMERIS_TYPE":0,"CLASSIFICATION_TYPE":"U","NORAD_CAT_ID":32451,"ELEMENT_SET_NO":999,"REV_AT_EPOCH":62852,"BSTAR":0.003613,"MEAN_MOTION_DOT":4.817e-5,"MEAN_MOTION_DDOT":0},{"OBJECT_NAME":"FENGYUN 1C DEB","OBJECT_ID":"1999-025DBR","EPOCH":"2026-03-01T05:00:48.611808","MEAN_MOTION":14.02479418,"ECCENTRICITY":0.0098748,"INCLINATION":99.3711,"RA_OF_ASC_NODE":337.1314,"ARG_OF_PERICENTER":351.4274,"MEAN_ANOMALY":8.52,"EPHEMERIS_TYPE":0,"CLASSIFICATION_TYPE":"U","NORAD_CAT_ID":32453,"ELEMENT_SET_NO":999,"REV_AT_EPOCH":94528,"BSTAR":0.00089233,"MEAN_MOTION_DOT":1.385e-5,"MEAN_MOTION_DDOT":0},{"OBJECT_NAME":"FENGYUN 1C DEB","OBJECT_ID":"1999-025DBT","EPOCH":"2026-03-02T07:21:45.493056","MEAN_MOTION":13.93075137,"ECCENTRICITY":0.02382506,"INCLINATION":101.7335,"RA_OF_ASC_NODE":279.5316,"ARG_OF_PERICENTER":308.4506,"MEAN_ANOMALY":49.5477,"EPHEMERIS_TYPE":0,"CLASSIFICATION_TYPE":"U","NORAD_CAT_ID":32455,"ELEMENT_SET_NO":999,"REV_AT_EPOCH":65523,"BSTAR":0.0026160703,"MEAN_MOTION_DOT":4.236e-5,"MEAN_MOTION_DDOT":0},{"OBJECT_NAME":"FENGYUN 1C DEB","OBJECT_ID":"1999-025DBU","EPOCH":"2026-02-28T04:24:10.342656","MEAN_MOTION":13.35831848,"ECCENTRICITY":0.0373843,"INCLINATION":103.6729,"RA_OF_ASC_NODE":230.58,"ARG_OF_PERICENTER":67.5823,"MEAN_ANOMALY":296.4442,"EPHEMERIS_TYPE":0,"CLASSIFICATION_TYPE":"U","NORAD_CAT_ID":32456,"ELEMENT_SET_NO":999,"REV_AT_EPOCH":61650,"BSTAR":0.0012038,"MEAN_MOTION_DOT":8.47e-6,"MEAN_MOTION_DDOT":0},{"OBJECT_NAME":"FENGYUN 1C DEB","OBJECT_ID":"1999-025DBW","EPOCH":"2026-02-24T06:11:44.002752","MEAN_MOTION":14.63609553,"ECCENTRICITY":0.0040612,"INCLINATION":99.0398,"RA_OF_ASC_NODE":87.1316,"ARG_OF_PERICENTER":147.4694,"MEAN_ANOMALY":212.902,"EPHEMERIS_TYPE":0,"CLASSIFICATION_TYPE":"U","NORAD_CAT_ID":32458,"ELEMENT_SET_NO":999,"REV_AT_EPOCH":68864,"BSTAR":0.0013229,"MEAN_MOTION_DOT":6.903e-5,"MEAN_MOTION_DDOT":0},{"OBJECT_NAME":"FENGYUN 1C DEB","OBJECT_ID":"1999-025DBX","EPOCH":"2026-03-01T00:06:41.606208","MEAN_MOTION":14.43286884,"ECCENTRICITY":0.0210942,"INCLINATION":98.3001,"RA_OF_ASC_NODE":77.275,"ARG_OF_PERICENTER":309.7921,"MEAN_ANOMALY":48.4862,"EPHEMERIS_TYPE":0,"CLASSIFICATION_TYPE":"U","NORAD_CAT_ID":32459,"ELEMENT_SET_NO":999,"REV_AT_EPOCH":95679,"BSTAR":0.00070609615,"MEAN_MOTION_DOT":3.062e-5,"MEAN_MOTION_DDOT":0},{"OBJECT_NAME":"FENGYUN 1C DEB","OBJECT_ID":"1999-025DBY","EPOCH":"2026-03-02T08:09:41.999616","MEAN_MOTION":13.89855702,"ECCENTRICITY":0.01850636,"INCLINATION":98.023,"RA_OF_ASC_NODE":200.6278,"ARG_OF_PERICENTER":260.8485,"MEAN_ANOMALY":97.17,"EPHEMERIS_TYPE":0,"CLASSIFICATION_TYPE":"U","NORAD_CAT_ID":32460,"ELEMENT_SET_NO":999,"REV_AT_EPOCH":66359,"BSTAR":0.0015260011,"MEAN_MOTION_DOT":2.117e-5,"MEAN_MOTION_DDOT":0},{"OBJECT_NAME":"FENGYUN 1C DEB","OBJECT_ID":"1999-025DBZ","EPOCH":"2026-03-01T13:07:19.898976","MEAN_MOTION":13.73078019,"ECCENTRICITY":0.02318991,"INCLINATION":98.332,"RA_OF_ASC_NODE":270.6309,"ARG_OF_PERICENTER":264.9098,"MEAN_ANOMALY":121.7244,"EPHEMERIS_TYPE":0,"CLASSIFICATION_TYPE":"U","NORAD_CAT_ID":32461,"ELEMENT_SET_NO":999,"REV_AT_EPOCH":68376,"BSTAR":0.0013031972,"MEAN_MOTION_DOT":1.423e-5,"MEAN_MOTION_DDOT":0},{"OBJECT_NAME":"FENGYUN 1C DEB","OBJECT_ID":"1999-025DCC","EPOCH":"2026-02-28T00:32:15.983808","MEAN_MOTION":14.9573834,"ECCENTRICITY":0.01067974,"INCLINATION":97.3498,"RA_OF_ASC_NODE":83.4554,"ARG_OF_PERICENTER":337.6961,"MEAN_ANOMALY":21.9633,"EPHEMERIS_TYPE":0,"CLASSIFICATION_TYPE":"U","NORAD_CAT_ID":32464,"ELEMENT_SET_NO":999,"REV_AT_EPOCH":61946,"BSTAR":0.0014913123,"MEAN_MOTION_DOT":0.00018615,"MEAN_MOTION_DDOT":0},{"OBJECT_NAME":"FENGYUN 1C DEB","OBJECT_ID":"1999-025DCF","EPOCH":"2026-03-02T19:46:41.249856","MEAN_MOTION":14.23107787,"ECCENTRICITY":0.0078671,"INCLINATION":99.0293,"RA_OF_ASC_NODE":11.508,"ARG_OF_PERICENTER":286.1706,"MEAN_ANOMALY":105.7568,"EPHEMERIS_TYPE":0,"CLASSIFICATION_TYPE":"U","NORAD_CAT_ID":33502,"ELEMENT_SET_NO":999,"REV_AT_EPOCH":88094,"BSTAR":0.0031096,"MEAN_MOTION_DOT":7.204e-5,"MEAN_MOTION_DDOT":0},{"OBJECT_NAME":"FENGYUN 1C DEB","OBJECT_ID":"1999-025DCJ","EPOCH":"2026-03-02T08:23:10.581792","MEAN_MOTION":14.0824412,"ECCENTRICITY":0.01564277,"INCLINATION":98.3212,"RA_OF_ASC_NODE":216.3699,"ARG_OF_PERICENTER":274.674,"MEAN_ANOMALY":83.6581,"EPHEMERIS_TYPE":0,"CLASSIFICATION_TYPE":"U","NORAD_CAT_ID":33601,"ELEMENT_SET_NO":999,"REV_AT_EPOCH":91800,"BSTAR":0.0013958878,"MEAN_MOTION_DOT":2.627e-5,"MEAN_MOTION_DDOT":0},{"OBJECT_NAME":"FENGYUN 1C DEB","OBJECT_ID":"1999-025DCL","EPOCH":"2026-03-02T14:09:09.586656","MEAN_MOTION":14.80458413,"ECCENTRICITY":0.0217778,"INCLINATION":98.814,"RA_OF_ASC_NODE":10.0656,"ARG_OF_PERICENTER":179.2213,"MEAN_ANOMALY":180.9379,"EPHEMERIS_TYPE":0,"CLASSIFICATION_TYPE":"U","NORAD_CAT_ID":33603,"ELEMENT_SET_NO":999,"REV_AT_EPOCH":38,"BSTAR":0.00016587,"MEAN_MOTION_DOT":1.824e-5,"MEAN_MOTION_DDOT":0},{"OBJECT_NAME":"FENGYUN 1C DEB","OBJECT_ID":"1999-025DCN","EPOCH":"2026-03-02T05:38:30.884352","MEAN_MOTION":14.079507,"ECCENTRICITY":0.00556217,"INCLINATION":98.7042,"RA_OF_ASC_NODE":62.3713,"ARG_OF_PERICENTER":209.5321,"MEAN_ANOMALY":164.8014,"EPHEMERIS_TYPE":0,"CLASSIFICATION_TYPE":"U","NORAD_CAT_ID":33605,"ELEMENT_SET_NO":999,"REV_AT_EPOCH":60937,"BSTAR":0.00053520003,"MEAN_MOTION_DOT":8.8e-6,"MEAN_MOTION_DDOT":0}]
